[
    {
        "CCSDS_OMM_VERS": "3.0",
        "COMMENT": "GENERATED VIA SPACE-TRACK.ORG API",
        "CREATION_DATE": "2025-03-02T18:08:23",
        "ORIGINATOR": "18 SPCS",
        "OBJECT_NAME": "COSMOS 2514 (GLONASS)",
        "OBJECT_ID": "2016-008A",
        "CENTER_NAME": "EARTH",
        "REF_FRAME": "TEME",
        "TIME_SYSTEM": "UTC",
        "MEAN_ELEMENT_THEORY": "SGP4",
        "EPOCH": "2025-03-02T05:01:13.258272",
        "MEAN_MOTION": "2.13102486",
        "ECCENTRICITY": "0.00090050",
        "INCLINATION": "65.2863",
        "RA_OF_ASC_NODE": "329.1631",
        "ARG_OF_PERICENTER": "216.3432",
        "MEAN_ANOMALY": "143.6462",
        "EPHEMERIS_TYPE": "0",
        "CLASSIFICATION_TYPE": "U",
        "NORAD_CAT_ID": "41330",
        "ELEMENT_SET_NO": "999",
        "REV_AT_EPOCH": "7056",
        "BSTAR": "0.00000000000000",
        "MEAN_MOTION_DOT": "-0.00000048",
        "MEAN_MOTION_DDOT": "0.0000000000000",
        "SEMIMAJOR_AXIS": "25507.986",
        "PERIOD": "675.731",
        "APOAPSIS": "19152.821",
        "PERIAPSIS": "19106.881",
        "OBJECT_TYPE": "PAYLOAD",
        "RCS_SIZE": "LARGE",
        "COUNTRY_CODE": "CIS",
        "LAUNCH_DATE": "2016-02-07",
        "SITE": "PKMTR",
        "DECAY_DATE": null,
        "FILE": "4657142",
        "GP_ID": "282085488",
        "TLE_LINE0": "0 COSMOS 2514 (GLONASS)",
        "TLE_LINE1": "1 41330U 16008A   25061.20918123 -.00000048  00000-0  00000-0 0  9999",
        "TLE_LINE2": "2 41330  65.2863 329.1631 0009005 216.3432 143.6462  2.13102486 70564"
    }
]